33P/Daniel,e,22.2965,66.3102,20.5039,4.086561,0.1193073,0.45163673,244.3821,03/19.0/2022,2000,g 10.0,12.0
# From  15, 452
35P/Herschel-Rigollet,e,65.251,356.718,28.959,28.5548,0.006459,0.9740981,0.000,01/16.6605/2092,2000,g  9.0,4.0
# From MPEC 2022-ED3
36P/Whipple,e,9.9522,181.8444,200.9332,4.135159,0.1172103,0.26905105,76.8450,03/19.0/2022,2000,g  8.5,6.0
# From MPEC 2021-F20
37P/Forbes,e,8.9557,314.5642,330.1198,3.460915,0.1530797,0.53349536,216.5872,03/19.0/2022,2000,g 13.8,4.0
# From MPEC 2018-S50
38P/Stephan-Oterma,e,18.3725,77.9408,359.4998,11.23627,0.0261680,0.85914301,32.0231,03/19.0/2022,2000,g  3.5,12.0
# From MPEC 2022-A21
39P/Oterma,e,1.5523,298.8449,97.4128,7.353606,0.0494258,0.22213909,338.0559,03/19.0/2022,2000,g  7.0,6.0
# From MPC100283
40P/Vaisala,e,11.4693,133.7778,47.3879,4.953497,0.0893997,0.62975803,240.2816,03/19.0/2022,2000,g  5.5,12.0
# From MPC105240
41P/Tuttle-Giacobini-Kresak,e,9.2208,140.9891,62.2209,3.088123,0.1816194,0.65997036,327.5963,03/19.0/2022,2000,g 10.0,16.0
# From MPC 94283
42P/Neujmin,e,3.9914,150.1751,147.2325,4.873294,0.0916157,0.58507433,232.0285,03/19.0/2022,2000,g 13.0,6.0
# From MPEC 2022-C56
43P/Wolf-Harrington,e,9.3345,244.0866,224.1154,4.317735,0.1098551,0.43539199,224.1411,03/19.0/2022,2000,g  8.0,6.0
# From MPEC 2021-TD0
44P/Reinmuth,e,5.8965,286.4745,58.0904,3.692136,0.1389273,0.42779204,355.0958,03/19.0/2022,2000,g  8.3,6.0
# From MPC103849
45P/Honda-Mrkos-Pajdusakova,e,4.3226,87.7035,327.9063,3.052981,0.1847642,0.81749275,353.0625,03/19.0/2022,2000,g 13.5,8.0
# From MPEC 2021-O56
46P/Wirtanen,e,11.7461,82.1573,356.3309,3.091859,0.1812903,0.65844765,216.2761,03/19.0/2022,2000,g 14.0,6.0
# From MPEC 2021-S45
47P/Ashbrook-Jackson,e,13.0411,356.9212,357.6798,4.123321,0.1177154,0.31857870,204.8622,03/19.0/2022,2000,g 12.5,4.0
# From MPEC 2021-F20
48P/Johnson,e,12.2038,110.1149,216.6937,3.501052,0.1504548,0.42735774,197.6736,03/19.0/2022,2000,g 12.4,4.0
# From MPEC 2021-F20
49P/Arend-Rigaux,e,19.0471,118.7954,332.9277,3.569713,0.1461349,0.59829687,196.4202,03/19.0/2022,2000,g 13.4,4.0
# From MPEC 2015-S97
50P/Arend,e,19.1006,355.1778,49.3177,4.088219,0.1192348,0.52930452,266.2759,03/19.0/2022,2000,g  9.5,6.0
# From NK 3014
51P-A/Harrington,e,5.4261,83.6755,269.2675,3.707981,0.1380377,0.54353546,332.5387,03/19.0/2022,2000,g 10.0,8.0
# From NK 3013
51P-D/Harrington,e,5.4268,83.6604,269.3058,3.707021,0.1380914,0.54346814,332.8253,03/19.0/2022,2000,g 16.0,8.0
# From MPEC 2022-ED3
52P/Harrington-Abell,e,10.2316,336.8379,139.5889,3.864865,0.1297187,0.54016743,21.3794,03/19.0/2022,2000,g 13.5,6.0
# From MPC100283
53P/Van Biesbroeck,e,6.6095,148.8111,134.5036,5.429454,0.0779058,0.55132436,167.3938,03/19.0/2022,2000,g  7.7,4.8
# From MPC 89011
54P/de Vico-Swift-NEAT,e,6.0647,358.8172,1.8169,3.790397,0.1335602,0.42628530,239.8453,03/19.0/2022,2000,g  9.0,4.0
# From MPC 31070
55P/Tempel-Tuttle,e,162.4651,235.4116,172.4860,10.35655,0.0295721,0.90578245,260.9810,03/19.0/2022,2000,g  9.0,4.0
# From MPC101100
56P/Slaughter-Burnham,e,8.1612,345.9953,43.9898,5.067910,0.0863894,0.50801944,178.5849,03/19.0/2022,2000,g  8.5,6.0
# From MPEC 2022-C56
57P/duToit-Neujmin-Delporte,e,2.8517,188.7674,115.2395,3.447078,0.1540023,0.50106235,23.5052,03/19.0/2022,2000,g 12.5,6.0
# From MPEC 2021-O56
58P/Jackson-Neujmin,e,13.1087,159.0746,200.5059,4.086526,0.1193088,0.66280935,78.7839,03/19.0/2022,2000,g 15.5,6.0
# From MPEC 2021-F20
59P/Kearns-Kwee,e,9.3418,312.8213,127.5087,4.485328,0.1037559,0.47550791,132.7367,03/19.0/2022,2000,g  7.0,6.0
# From MPEC 2021-F20
60P/Tsuchinshan,e,3.5834,267.4912,216.9871,3.524854,0.1489335,0.53393390,178.2531,03/19.0/2022,2000,g 11.5,6.0
# From MPEC 2015-Q71
61P/Shajn-Schaldach,e,5.9995,162.9686,221.7368,3.690507,0.1390193,0.42414852,329.5528,03/19.0/2022,2000,g  6.0,10.0
# From MPC109147
62P/Tsuchinshan,e,4.7384,68.9048,47.3147,3.362608,0.1598416,0.62640073,256.8120,03/19.0/2022,2000,g  8.0,10.0
# From MPC 84320
63P/Wild,e,19.7297,358.0190,169.0505,5.608495,0.0742052,0.64904977,243.0825,03/19.0/2022,2000,g 10.5,6.0
# From MPEC 2021-F20
64P/Swift-Gehrels,e,8.9492,299.9667,97.0908,4.453075,0.1048852,0.68831257,129.0416,03/19.0/2022,2000,g 13.4,4.0
# From MPEC 2022-ED3
65P/Gunn,e,9.1772,62.0037,213.9041,3.887365,0.1285941,0.24895698,207.5322,03/19.0/2022,2000,g  5.0,6.0
# From MPEC 2021-F20
66P/duToit,e,18.6426,21.7992,257.4418,6.068731,0.0659261,0.78637269,92.3138,03/19.0/2022,2000,g 15.0,4.0
# From MPEC 2022-ED3
67P/Churyumov-Gerasimenko,e,3.8716,36.3322,22.1402,3.456102,0.1533996,0.64970775,21.0053,03/19.0/2022,2000,g 11.0,4.0
# From MPC 75716
68P/Klemola,e,11.1111,175.0495,153.1939,4.956289,0.0893242,0.63754638,76.8943,03/19.0/2022,2000,g 10.0,4.0
# From MPC114607
69P/Taylor,e,22.0377,104.8163,343.4083,3.885989,0.1286624,0.41337613,141.1248,03/19.0/2022,2000,g  9.5,12.0
# From MPEC 2022-ED3
70P/Kojima,e,6.5979,119.2674,1.8245,3.678251,0.1397147,0.45382271,18.9866,03/19.0/2022,2000,g 11.0,6.0
# From MPEC 2022-ED3
71P/Clark,e,9.4375,59.4001,209.0595,3.139401,0.1771878,0.49394466,305.1106,03/19.0/2022,2000,g  9.8,6.0
# From MPC 89011
72P/Denning-Fujikawa,e,10.9468,26.6971,346.7079,4.309393,0.1101742,0.81859767,309.9914,03/19.0/2022,2000,g 17.5,10.0
# From MPEC 2022-ED3
73P/Schwassmann-Wachmann,e,11.2276,69.6128,199.4834,3.092661,0.1812198,0.68539318,331.0431,03/19.0/2022,2000,g 11.5,6.0
# From MPC106348
73P-T/Schwassmann-Wachmann,e,11.2296,69.6159,199.4628,3.094135,0.1810903,0.68559231,330.8084,03/19.0/2022,2000,g 11.5,6.0
# From MPEC 2021-UA9
74P/Smirnova-Chernykh,e,6.0098,61.8421,126.4743,4.456849,0.1047520,0.12418273,145.0494,03/19.0/2022,2000,g  5.0,6.0
# From MPEC 2021-F20
76P/West-Kohoutek-Ikemura,e,30.4679,84.1084,359.9456,3.471591,0.1523741,0.53833500,133.3136,03/19.0/2022,2000,g 15.5,4.0
# From MPEC 2022-ED3
77P/Longmore,e,24.3182,14.7716,196.7836,3.623156,0.1429136,0.35189642,305.6546,03/19.0/2022,2000,g  7.0,8.0
# From MPEC 2021-O56
78P/Gehrels,e,6.2541,210.5150,192.6329,3.738009,0.1363777,0.46246877,147.3853,03/19.0/2022,2000,g  5.5,8.0
# From MPC 94675
79P/du Toit-Hartley,e,3.1480,280.5304,281.7801,2.943212,0.1951964,0.61890698,250.5890,03/19.0/2022,2000,g 16.0,4.0
# From MPEC 2014-P41
80P/Peters-Hartley,e,29.9231,259.8046,339.2457,4.024607,0.1220728,0.59866998,327.6675,03/19.0/2022,2000,g  9.0,4.0
# From MPEC 2022-ED3
81P/Wild,e,3.2366,136.0991,41.6507,3.452931,0.1536110,0.53712383,318.2703,03/19.0/2022,2000,g  7.0,6.0
# From MPC133426
82P/Gehrels,e,1.1290,239.3122,226.5065,4.134266,0.1172483,0.12178500,159.9599,03/19.0/2022,2000,g 15.0,4.0
# From MPEC 2020-FB5
84P/Giclas,e,7.5509,108.1631,281.5908,3.549590,0.1473794,0.51590052,96.2387,03/19.0/2022,2000,g  9.5,8.0
# From MPC109147
86P/Wild,e,15.4753,72.3558,179.4088,3.601058,0.1442311,0.37222070,5.6812,03/19.0/2022,2000,g 11.0,6.0
# From MPEC 2020-SI8
87P/Bus,e,2.6744,181.1165,26.3447,3.457853,0.1532831,0.39459741,103.2068,03/19.0/2022,2000,g  7.2,10.0
# From MPEC 2022-ED3
88P/Howell,e,4.3830,56.6781,235.9173,3.105440,0.1801024,0.56404742,96.9857,03/19.0/2022,2000,g 11.0,6.0
# From MPC100283
89P/Russell,e,12.0701,41.3592,250.3808,3.753890,0.1355133,0.40837740,259.9443,03/19.0/2022,2000,g 11.5,6.0
# From MPC107051
90P/Gehrels,e,9.6502,13.2048,29.0530,6.051662,0.0662052,0.51059139,114.7141,03/19.0/2022,2000,g  8.5,6.0
# From MPEC 2021-S45
91P/Russell,e,14.0774,247.5543,355.2883,3.902188,0.1278621,0.33257245,63.0921,03/19.0/2022,2000,g  7.5,6.0
# From MPEC 2014-J58
92P/Sanguin,e,19.5052,181.3629,163.7809,5.343639,0.0797900,0.66104511,205.0574,03/19.0/2022,2000,g 12.0,6.0
# From NK 2707
93P/Lovas,e,12.2035,339.6469,74.8093,4.381416,0.1074688,0.61307924,198.1026,03/19.0/2022,2000,g  9.0,4.0
# From MPEC 2021-Y10
94P/Russell,e,6.1881,70.8580,92.4464,3.507853,0.1500175,0.36513237,295.7611,03/19.0/2022,2000,g  9.0,6.0
# From MPC 75717
95P/Chiron,e,6.9240,209.2915,339.6001,13.70810,0.0194195,0.37654167,185.9465,03/19.0/2022,2000,g  6.5,2.0
# From MPEC 2017-T14
96P/Machholz,e,57.5138,93.9616,14.7495,3.029333,0.1869320,0.96157441,300.5355,03/19.0/2022,2000,g  9.0,4.0
# From MPEC 2022-C56
97P/Metcalf-Brewington,e,17.9521,184.0782,229.9670,4.759192,0.0949302,0.45994782,2.9867,03/19.0/2022,2000,g  5.5,6.0
# From MPEC 2021-W31
98P/Takamizawa,e,10.5601,114.6931,157.8410,3.795947,0.1332674,0.56226787,58.4011,03/19.0/2022,2000,g  9.0,8.0
# From MPEC 2022-ED3
99P/Kowal,e,4.3396,28.1019,174.9358,6.106178,0.0653206,0.22928730,358.3885,03/19.0/2022,2000,g  4.5,6.0
# From MPEC 2022-ED3
100P/Hartley,e,25.5649,37.6888,181.9756,3.432661,0.1549736,0.41223350,337.5347,03/19.0/2022,2000,g  9.0,8.0
# From MPEC 2022-ED3
101P/Chernykh,e,5.0520,116.2216,277.7223,5.805835,0.0704542,0.59620380,56.0956,03/19.0/2022,2000,g 10.0,4.8
# From MPEC 2022-C56
102P/Shoemaker,e,25.8845,339.3656,20.5879,3.814384,0.1323023,0.45717309,55.6288,03/19.0/2022,2000,g  6.5,8.0
# From MPEC 2018-HA5
103P/Hartley,e,13.6071,219.7409,181.2852,3.475590,0.1521112,0.69353920,272.8985,03/19.0/2022,2000,g  8.5,8.0
# From MPEC 2022-ED3
104P/Kowal,e,5.7011,207.2131,227.2518,3.205865,0.1717063,0.66528681,11.3976,03/19.0/2022,2000,g 16.0,4.0
# From MPC109147
105P/Singer Brewster,e,9.1690,192.4026,46.4747,3.468297,0.1525913,0.40910327,201.1375,03/19.0/2022,2000,g 11.5,6.0
# From MPEC 2022-ED3
106P/Schuster,e,19.5359,48.8827,353.6830,3.763585,0.1349899,0.59380878,28.6461,03/19.0/2022,2000,g 14.0,4.8
# From MPEC 2015-M77
107P/Wilson-Harrington,e,2.7993,266.7791,95.4388,2.624788,0.2317730,0.63171173,323.2253,03/19.0/2022,2000,g  9.0,4.0
# From MPEC 2022-ED3
108P/Ciffreo,e,11.4361,50.2886,354.4343,3.738876,0.1363303,0.55592898,25.8870,03/19.0/2022,2000,g  8.0,12.0
# From  105, 420
109P/Swift-Tuttle,e,113.9329,139.0814,152.9703,26.16830,0.0073628,0.96269169,78.7336,03/19.0/2022,2000,g  4.0,6.0
# From MPEC 2022-ED3
110P/Hartley,e,11.7059,287.5348,167.4486,3.603031,0.1441126,0.31842896,21.8594,03/19.0/2022,2000,g  1.0,12.0
# From MPC 75718
111P/Helin-Roman-Crockett,e,4.2263,89.7632,0.9965,4.149156,0.1166177,0.10642532,32.2244,03/19.0/2022,2000,g  5.0,8.0
